{"type": "FeatureCollection", "features": [ {"type": "Feature", "properties": {"norad_id": 34432, "name": "COSMOS 2251 DEB", "group": "cosmos-2251-debris", "lat": -60.262007359665255, "lon": 74.89644479666333, "alt_km": 927.1248455267796, "timestamp": "2025-12-10T23:33:13.212372+00:00", "meta": {"OBJECT_NAME": "COSMOS 2251 DEB", "OBJECT_ID": "1993-036RZ", "EPOCH": "2025-12-10T15:22:37.509024", "MEAN_MOTION": 14.02893053, "ECCENTRICITY": 0.01827032, "INCLINATION": 73.8286, "RA_OF_ASC_NODE": 106.0228, "ARG_OF_PERICENTER": 189.0096, "MEAN_ANOMALY": 184.3567, "EPHEMERIS_TYPE": 0, "CLASSIFICATION_TYPE": "U", "NORAD_CAT_ID": 34432, "ELEMENT_SET_NO": 999, "REV_AT_EPOCH": 85655, "BSTAR": 0.0020666021, "MEAN_MOTION_DOT": 3.686e-05, "MEAN_MOTION_DDOT": 0}, "tle": {"line1": "1 34432U 93036RZ  25344.64071191  .00003686  00000+0  20666-2 0  9998", "line2": "2 34432  73.8286 106.0228 0182703 189.0096 184.3567 14.02893053856553"}}, "geometry": {"type": "Point", "coordinates": [74.89644479666333, -60.262007359665255]}}, {"type": "Feature", "properties": {"norad_id": 34433, "name": "COSMOS 2251 DEB", "group": "cosmos-2251-debris", "lat": -67.17512811136892, "lon": 20.99579517051219, "alt_km": 775.4273907060788, "timestamp": "2025-12-10T23:33:13.212385+00:00", "meta": {"OBJECT_NAME": "COSMOS 2251 DEB", "OBJECT_ID": "1993-036SA", "EPOCH": "2025-12-08T22:45:44.652672", "MEAN_MOTION": 14.12826602, "ECCENTRICITY": 0.0151933, "INCLINATION": 74.0116, "RA_OF_ASC_NODE": 161.6553, "ARG_OF_PERICENTER": 300.4832, "MEAN_ANOMALY": 58.1378, "EPHEMERIS_TYPE": 0, "CLASSIFICATION_TYPE": "U", "NORAD_CAT_ID": 34433, "ELEMENT_SET_NO": 999, "REV_AT_EPOCH": 85896, "BSTAR": 0.0014623, "MEAN_MOTION_DOT": 3.008e-05, "MEAN_MOTION_DDOT": 0}, "tle": {"line1": "1 34433U 93036SA  25342.94843348  .00003008  00000+0  14623-2 0  9995", "line2": "2 34433  74.0116 161.6553 0151933 300.4832  58.1378 14.12826602858967"}}, "geometry": {"type": "Point", "coordinates": [20.99579517051219, -67.17512811136892]}}, {"type": "Feature", "properties": {"norad_id": 34434, "name": "COSMOS 2251 DEB", "group": "cosmos-2251-debris", "lat": -62.350810390913665, "lon": -19.93755847532223, "alt_km": 1092.8733150710577, "timestamp": "2025-12-10T23:33:13.212394+00:00", "meta": {"OBJECT_NAME": "COSMOS 2251 DEB", "OBJECT_ID": "1993-036SB", "EPOCH": "2025-12-10T12:23:00.622752", "MEAN_MOTION": 13.89785212, "ECCENTRICITY": 0.02754634, "INCLINATION": 74.0629, "RA_OF_ASC_NODE": 13.907, "ARG_OF_PERICENTER": 151.755, "MEAN_ANOMALY": 331.4872, "EPHEMERIS_TYPE": 0, "CLASSIFICATION_TYPE": "U", "NORAD_CAT_ID": 34434, "ELEMENT_SET_NO": 999, "REV_AT_EPOCH": 83935, "BSTAR": 0.0027170027, "MEAN_MOTION_DOT": 4.509e-05, "MEAN_MOTION_DDOT": 0}, "tle": {"line1": "1 34434U 93036SB  25344.51597943  .00004509  00000+0  27170-2 0  9996", "line2": "2 34434  74.0629  13.9070 0275463 151.7550 331.4872 13.89785212839351"}}, "geometry": {"type": "Point", "coordinates": [-19.93755847532223, -62.350810390913665]}}, {"type": "Feature", "properties": {"norad_id": 34446, "name": "COSMOS 2251 DEB", "group": "cosmos-2251-debris", "lat": 71.10964532434959, "lon": -176.16018991995173, "alt_km": 725.9373697505907, "timestamp": "2025-12-10T23:33:13.212403+00:00", "meta": {"OBJECT_NAME": "COSMOS 2251 DEB", "OBJECT_ID": "1993-036SP", "EPOCH": "2025-12-10T06:31:24.792672", "MEAN_MOTION": 14.49348632, "ECCENTRICITY": 0.0051273, "INCLINATION": 74.0423, "RA_OF_ASC_NODE": 61.9096, "ARG_OF_PERICENTER": 200.5055, "MEAN_ANOMALY": 159.4049, "EPHEMERIS_TYPE": 0, "CLASSIFICATION_TYPE": "U", "NORAD_CAT_ID": 34446, "ELEMENT_SET_NO": 999, "REV_AT_EPOCH": 88658, "BSTAR": 0.00024286, "MEAN_MOTION_DOT": 9.15e-06, "MEAN_MOTION_DDOT": 0}, "tle": {"line1": "1 34446U 93036SP  25344.27181473  .00000915  00000+0  24286-3 0  9992", "line2": "2 34446  74.0423  61.9096 0051273 200.5055 159.4049 14.49348632886580"}}, "geometry": {"type": "Point", "coordinates": [-176.16018991995173, 71.10964532434959]}}, {"type": "Feature", "properties": {"norad_id": 34449, "name": "COSMOS 2251 DEB", "group": "cosmos-2251-debris", "lat": -37.94364456616886, "lon": 61.20539614355024, "alt_km": 604.4640558797191, "timestamp": "2025-12-10T23:33:13.212412+00:00", "meta": {"OBJECT_NAME": "COSMOS 2251 DEB", "OBJECT_ID": "1993-036SS", "EPOCH": "2025-12-10T07:57:12.945312", "MEAN_MOTION": 14.94640838, "ECCENTRICITY": 0.0023468, "INCLINATION": 74.0327, "RA_OF_ASC_NODE": 75.415, "ARG_OF_PERICENTER": 119.3775, "MEAN_ANOMALY": 304.9921, "EPHEMERIS_TYPE": 0, "CLASSIFICATION_TYPE": "U", "NORAD_CAT_ID": 34449, "ELEMENT_SET_NO": 999, "REV_AT_EPOCH": 88657, "BSTAR": 0.0045598, "MEAN_MOTION_DOT": 0.00050003, "MEAN_MOTION_DDOT": 0}, "tle": {"line1": "1 34449U 93036SS  25344.33139983  .00050003  00000+0  45598-2 0  9992", "line2": "2 34449  74.0327  75.4150 0023468 119.3775 304.9921 14.94640838886576"}}, "geometry": {"type": "Point", "coordinates": [61.20539614355024, -37.94364456616886]}}, {"type": "Feature", "properties": {"norad_id": 34451, "name": "COSMOS 2251 DEB", "group": "cosmos-2251-debris", "lat": -66.80347303277132, "lon": 49.53902260021934, "alt_km": 604.9447770893012, "timestamp": "2025-12-10T23:33:13.212422+00:00", "meta": {"OBJECT_NAME": "COSMOS 2251 DEB", "OBJECT_ID": "1993-036SU", "EPOCH": "2025-12-10T09:25:47.614944", "MEAN_MOTION": 14.95338379, "ECCENTRICITY": 0.00244326, "INCLINATION": 74.0466, "RA_OF_ASC_NODE": 92.6027, "ARG_OF_PERICENTER": 114.1424, "MEAN_ANOMALY": 246.2319, "EPHEMERIS_TYPE": 0, "CLASSIFICATION_TYPE": "U", "NORAD_CAT_ID": 34451, "ELEMENT_SET_NO": 999, "REV_AT_EPOCH": 88600, "BSTAR": 0.0044843553, "MEAN_MOTION_DOT": 0.00050081, "MEAN_MOTION_DDOT": 0}, "tle": {"line1": "1 34451U 93036SU  25344.39291221  .00050081  00000+0  44844-2 0  9994", "line2": "2 34451  74.0466  92.6027 0024432 114.1424 246.2319 14.95338379886005"}}, "geometry": {"type": "Point", "coordinates": [49.53902260021934, -66.80347303277132]}}, {"type": "Feature", "properties": {"norad_id": 34452, "name": "COSMOS 2251 DEB", "group": "cosmos-2251-debris", "lat": -73.2120113585537, "lon": 114.86142685227544, "alt_km": 493.23482847027935, "timestamp": "2025-12-10T23:33:13.212431+00:00", "meta": {"OBJECT_NAME": "COSMOS 2251 DEB", "OBJECT_ID": "1993-036SV", "EPOCH": "2025-12-10T12:55:23.712096", "MEAN_MOTION": 15.11584476, "ECCENTRICITY": 0.00666306, "INCLINATION": 74.0361, "RA_OF_ASC_NODE": 187.3753, "ARG_OF_PERICENTER": 264.1998, "MEAN_ANOMALY": 121.5933, "EPHEMERIS_TYPE": 0, "CLASSIFICATION_TYPE": "U", "NORAD_CAT_ID": 34452, "ELEMENT_SET_NO": 999, "REV_AT_EPOCH": 90629, "BSTAR": 0.0010770326, "MEAN_MOTION_DOT": 0.00019298, "MEAN_MOTION_DDOT": 0}, "tle": {"line1": "1 34452U 93036SV  25344.53846889  .00019298  00000+0  10770-2 0  9993", "line2": "2 34452  74.0361 187.3753 0066630 264.1998 121.5933 15.11584476906297"}}, "geometry": {"type": "Point", "coordinates": [114.86142685227544, -73.2120113585537]}}, {"type": "Feature", "properties": {"norad_id": 34453, "name": "COSMOS 2251 DEB", "group": "cosmos-2251-debris", "lat": 60.040089232419355, "lon": 132.84440627191793, "alt_km": 324.1780678404275, "timestamp": "2025-12-10T23:33:13.212440+00:00", "meta": {"OBJECT_NAME": "COSMOS 2251 DEB", "OBJECT_ID": "1993-036SW", "EPOCH": "2025-12-10T09:35:17.169792", "MEAN_MOTION": 15.76475254, "ECCENTRICITY": 0.00227882, "INCLINATION": 74.108, "RA_OF_ASC_NODE": 104.546, "ARG_OF_PERICENTER": 343.9244, "MEAN_ANOMALY": 16.1257, "EPHEMERIS_TYPE": 0, "CLASSIFICATION_TYPE": "U", "NORAD_CAT_ID": 34453, "ELEMENT_SET_NO": 999, "REV_AT_EPOCH": 88830, "BSTAR": 0.014973334, "MEAN_MOTION_DOT": 0.02764348, "MEAN_MOTION_DDOT": 0}, "tle": {"line1": "1 34453U 93036SW  25344.39950428  .02764348  00000+0  14973-1 0  9996", "line2": "2 34453  74.1080 104.5460 0022788 343.9244  16.1257 15.76475254888302"}}, "geometry": {"type": "Point", "coordinates": [132.84440627191793, 60.040089232419355]}}, {"type": "Feature", "properties": {"norad_id": 34454, "name": "COSMOS 2251 DEB", "group": "cosmos-2251-debris", "lat": 47.499197809771545, "lon": -60.94971420448472, "alt_km": 747.6664023119338, "timestamp": "2025-12-10T23:33:13.212449+00:00", "meta": {"OBJECT_NAME": "COSMOS 2251 DEB", "OBJECT_ID": "1993-036SX", "EPOCH": "2025-12-10T06:38:08.827584", "MEAN_MOTION": 14.38802341, "ECCENTRICITY": 0.0035503, "INCLINATION": 74.0587, "RA_OF_ASC_NODE": 282.1735, "ARG_OF_PERICENTER": 345.1749, "MEAN_ANOMALY": 14.8361, "EPHEMERIS_TYPE": 0, "CLASSIFICATION_TYPE": "U", "NORAD_CAT_ID": 34454, "ELEMENT_SET_NO": 999, "REV_AT_EPOCH": 88032, "BSTAR": 0.00044982, "MEAN_MOTION_DOT": 1.367e-05, "MEAN_MOTION_DDOT": 0}, "tle": {"line1": "1 34454U 93036SX  25344.27649106  .00001367  00000+0  44982-3 0  9990", "line2": "2 34454  74.0587 282.1735 0035503 345.1749  14.8361 14.38802341880328"}}, "geometry": {"type": "Point", "coordinates": [-60.94971420448472, 47.499197809771545]}}, {"type": "Feature", "properties": {"norad_id": 34459, "name": "COSMOS 2251 DEB", "group": "cosmos-2251-debris", "lat": -65.50429743165896, "lon": -141.69978592223828, "alt_km": 788.4463258678934, "timestamp": "2025-12-10T23:33:13.212458+00:00", "meta": {"OBJECT_NAME": "COSMOS 2251 DEB", "OBJECT_ID": "1993-036TC", "EPOCH": "2025-12-10T11:52:49.680480", "MEAN_MOTION": 14.00493882, "ECCENTRICITY": 0.01920483, "INCLINATION": 74.0793, "RA_OF_ASC_NODE": 257.9282, "ARG_OF_PERICENTER": 328.2162, "MEAN_ANOMALY": 30.7492, "EPHEMERIS_TYPE": 0, "CLASSIFICATION_TYPE": "U", "NORAD_CAT_ID": 34459, "ELEMENT_SET_NO": 999, "REV_AT_EPOCH": 85680, "BSTAR": 0.00081244298, "MEAN_MOTION_DOT": 1.39e-05, "MEAN_MOTION_DDOT": 0}, "tle": {"line1": "1 34459U 93036TC  25344.49501945  .00001390  00000+0  81244-3 0  9995", "line2": "2 34459  74.0793 257.9282 0192048 328.2162  30.7492 14.00493882856801"}}, "geometry": {"type": "Point", "coordinates": [-141.69978592223828, -65.50429743165896]}}]}